[
    {
        "Altitude(m)": 703115.5553906903,
        "Argument of Periapsis(deg)": 0.0022780242373254137,
        "Eccentricity": 0.0,
        "Inclination(deg)": 45.0,
        "Latitude(deg)": 21.040535029866803,
        "Longitude(deg)": -162.62552015409594,
        "Mean Anomaly(deg)": 149.57934332949617,
        "RAAN(deg)": 139.99784961170838,
        "Satellite Name": "Constellation 1 625",
        "Satellite Number": 625,
        "Semi-Major Axis(m)": 7083131.272910544,
        "Time(s)": 38
    },
    {
        "Altitude(m)": 703111.920866463,
        "Argument of Periapsis(deg)": 0.002337972243570819,
        "Eccentricity": 0.0,
        "Inclination(deg)": 45.0,
        "Latitude(deg)": 21.000634398148854,
        "Longitude(deg)": -162.58046612578568,
        "Mean Anomaly(deg)": 149.64004446974604,
        "RAAN(deg)": 139.99779302254277,
        "Satellite Name": "Constellation 1 625",
        "Satellite Number": 625,
        "Semi-Major Axis(m)": 7083131.272910544,
        "Time(s)": 39
    },
    {
        "Altitude(m)": 703108.299450255,
        "Argument of Periapsis(deg)": 0.0023979202498162246,
        "Eccentricity": 0.0,
        "Inclination(deg)": 45.0,
        "Latitude(deg)": 20.960719410104016,
        "Longitude(deg)": -162.53543822891268,
        "Mean Anomaly(deg)": 149.70074560999598,
        "RAAN(deg)": 139.9977364333772,
        "Satellite Name": "Constellation 1 625",
        "Satellite Number": 625,
        "Semi-Major Axis(m)": 7083131.272910544,
        "Time(s)": 40
    },
    {
        "Altitude(m)": 703104.6911748861,
        "Argument of Periapsis(deg)": 0.00245786825606163,
        "Eccentricity": 0.0,
        "Inclination(deg)": 45.0,
        "Latitude(deg)": 20.920790102927047,
        "Longitude(deg)": -162.4904364046376,
        "Mean Anomaly(deg)": 149.76144675024582,
        "RAAN(deg)": 139.99767984421166,
        "Satellite Name": "Constellation 1 625",
        "Satellite Number": 625,
        "Semi-Major Axis(m)": 7083131.272910544,
        "Time(s)": 41
    },
    {
        "Altitude(m)": 703101.096073112,
        "Argument of Periapsis(deg)": 0.002517816262307036,
        "Eccentricity": 0.0,
        "Inclination(deg)": 45.0,
        "Latitude(deg)": 20.88084651376089,
        "Longitude(deg)": -162.4454605941464,
        "Mean Anomaly(deg)": 149.82214789049578,
        "RAAN(deg)": 139.99762325504608,
        "Satellite Name": "Constellation 1 625",
        "Satellite Number": 625,
        "Semi-Major Axis(m)": 7083131.272910544,
        "Time(s)": 42
    },
    {
        "Altitude(m)": 703097.5141776497,
        "Argument of Periapsis(deg)": 0.0025777642685524413,
        "Eccentricity": 0.0,
        "Inclination(deg)": 45.0,
        "Latitude(deg)": 20.840888679697592,
        "Longitude(deg)": -162.40051073865158,
        "Mean Anomaly(deg)": 149.88284903074566,
        "RAAN(deg)": 139.9975666658805,
        "Satellite Name": "Constellation 1 625",
        "Satellite Number": 625,
        "Semi-Major Axis(m)": 7083131.272910544,
        "Time(s)": 43
    },
    {
        "Altitude(m)": 703093.945521157,
        "Argument of Periapsis(deg)": 0.002637712274797847,
        "Eccentricity": 0.0,
        "Inclination(deg)": 45.0,
        "Latitude(deg)": 20.800916637777846,
        "Longitude(deg)": -162.35558694748823,
        "Mean Anomaly(deg)": 149.94355017099554,
        "RAAN(deg)": 139.99751007671492,
        "Satellite Name": "Constellation 1 625",
        "Satellite Number": 625,
        "Semi-Major Axis(m)": 7083131.272910544,
        "Time(s)": 44
    },
    {
        "Altitude(m)": 703090.3901362569,
        "Argument of Periapsis(deg)": 0.0026976602810432526,
        "Eccentricity": 0.0,
        "Inclination(deg)": 45.0,
        "Latitude(deg)": 20.76093042499052,
        "Longitude(deg)": -162.31068882572674,
        "Mean Anomaly(deg)": 150.0042513112454,
        "RAAN(deg)": 139.99745348754936,
        "Satellite Name": "Constellation 1 625",
        "Satellite Number": 625,
        "Semi-Major Axis(m)": 7083131.272910544,
        "Time(s)": 45
    },
    {
        "Altitude(m)": 703086.8480555052,
        "Argument of Periapsis(deg)": 0.0027576082872886585,
        "Eccentricity": 0.0,
        "Inclination(deg)": 45.0,
        "Latitude(deg)": 20.720930078274307,
        "Longitude(deg)": -162.2658164827547,
        "Mean Anomaly(deg)": 150.06495245149537,
        "RAAN(deg)": 139.9973968983838,
        "Satellite Name": "Constellation 1 625",
        "Satellite Number": 625,
        "Semi-Major Axis(m)": 7083131.272910544,
        "Time(s)": 46
    },
    {
        "Altitude(m)": 703083.3193114209,
        "Argument of Periapsis(deg)": 0.0028175562935340644,
        "Eccentricity": 0.0,
        "Inclination(deg)": 45.0,
        "Latitude(deg)": 20.680915634516765,
        "Longitude(deg)": -162.22096985988927,
        "Mean Anomaly(deg)": 150.12565359174522,
        "RAAN(deg)": 139.99734030921823,
        "Satellite Name": "Constellation 1 625",
        "Satellite Number": 625,
        "Semi-Major Axis(m)": 7083131.272910544,
        "Time(s)": 47
    },
    {
        "Altitude(m)": 703079.8039364656,
        "Argument of Periapsis(deg)": 0.00287750429977947,
        "Eccentricity": 0.0,
        "Inclination(deg)": 45.0,
        "Latitude(deg)": 20.64088713055463,
        "Longitude(deg)": -162.17614889847374,
        "Mean Anomaly(deg)": 150.18635473199515,
        "RAAN(deg)": 139.99728372005265,
        "Satellite Name": "Constellation 1 625",
        "Satellite Number": 625,
        "Semi-Major Axis(m)": 7083131.272910544,
        "Time(s)": 48
    },
    {
        "Altitude(m)": 703076.3019630606,
        "Argument of Periapsis(deg)": 0.002937452306024875,
        "Eccentricity": 0.0,
        "Inclination(deg)": 45.0,
        "Latitude(deg)": 20.60084460317405,
        "Longitude(deg)": -162.1313535398782,
        "Mean Anomaly(deg)": 150.24705587224503,
        "RAAN(deg)": 139.9972271308871,
        "Satellite Name": "Constellation 1 625",
        "Satellite Number": 625,
        "Semi-Major Axis(m)": 7083131.272910544,
        "Time(s)": 49
    },
    {
        "Altitude(m)": 703072.8134235612,
        "Argument of Periapsis(deg)": 0.0029974003122702807,
        "Eccentricity": 0.0,
        "Inclination(deg)": 45.0,
        "Latitude(deg)": 20.56078808911057,
        "Longitude(deg)": -162.08658372549948,
        "Mean Anomaly(deg)": 150.30775701249496,
        "RAAN(deg)": 139.99717054172152,
        "Satellite Name": "Constellation 1 625",
        "Satellite Number": 625,
        "Semi-Major Axis(m)": 7083131.272910544,
        "Time(s)": 50
    },
    {
        "Altitude(m)": 703069.3383502857,
        "Argument of Periapsis(deg)": 0.0030573483185156866,
        "Eccentricity": 0.0,
        "Inclination(deg)": 45.0,
        "Latitude(deg)": 20.520717625049272,
        "Longitude(deg)": -162.0418393967608,
        "Mean Anomaly(deg)": 150.36845815274484,
        "RAAN(deg)": 139.99711395255596,
        "Satellite Name": "Constellation 1 625",
        "Satellite Number": 625,
        "Semi-Major Axis(m)": 7083131.272910544,
        "Time(s)": 51
    },
    {
        "Altitude(m)": 703065.8767754959,
        "Argument of Periapsis(deg)": 0.003117296324761092,
        "Eccentricity": 0.0,
        "Inclination(deg)": 45.0,
        "Latitude(deg)": 20.48063324762537,
        "Longitude(deg)": -161.99712066320973,
        "Mean Anomaly(deg)": 150.42915929299468,
        "RAAN(deg)": 139.99705736339035,
        "Satellite Name": "Constellation 1 625",
        "Satellite Number": 625,
        "Semi-Major Axis(m)": 7083131.272910544,
        "Time(s)": 52
    },
    {
        "Altitude(m)": 703062.4287314058,
        "Argument of Periapsis(deg)": 0.0031772443310064975,
        "Eccentricity": 0.0,
        "Inclination(deg)": 45.0,
        "Latitude(deg)": 20.440534993422734,
        "Longitude(deg)": -161.95242713012925,
        "Mean Anomaly(deg)": 150.4898604332447,
        "RAAN(deg)": 139.9970007742248,
        "Satellite Name": "Constellation 1 625",
        "Satellite Number": 625,
        "Semi-Major Axis(m)": 7083131.272910544,
        "Time(s)": 53
    },
    {
        "Altitude(m)": 703058.9942501747,
        "Argument of Periapsis(deg)": 0.0032371923372519038,
        "Eccentricity": 0.0,
        "Inclination(deg)": 45.0,
        "Latitude(deg)": 20.400422898976387,
        "Longitude(deg)": -161.90775890712098,
        "Mean Anomaly(deg)": 150.55056157349452,
        "RAAN(deg)": 139.99694418505925,
        "Satellite Name": "Constellation 1 625",
        "Satellite Number": 625,
        "Semi-Major Axis(m)": 7083131.272910544,
        "Time(s)": 54
    },
    {
        "Altitude(m)": 703055.5733639118,
        "Argument of Periapsis(deg)": 0.0032971403434973088,
        "Eccentricity": 0.0,
        "Inclination(deg)": 45.0,
        "Latitude(deg)": 20.360297000770778,
        "Longitude(deg)": -161.86311593571622,
        "Mean Anomaly(deg)": 150.6112627137444,
        "RAAN(deg)": 139.99688759589367,
        "Satellite Name": "Constellation 1 625",
        "Satellite Number": 625,
        "Semi-Major Axis(m)": 7083131.272910544,
        "Time(s)": 55
    },
    {
        "Altitude(m)": 703052.1661046782,
        "Argument of Periapsis(deg)": 0.0033570883497427146,
        "Eccentricity": 0.0,
        "Inclination(deg)": 45.0,
        "Latitude(deg)": 20.320157335240644,
        "Longitude(deg)": -161.81849815747373,
        "Mean Anomaly(deg)": 150.67196385399436,
        "RAAN(deg)": 139.99683100672812,
        "Satellite Name": "Constellation 1 625",
        "Satellite Number": 625,
        "Semi-Major Axis(m)": 7083131.272910544,
        "Time(s)": 56
    }
]